CCSDS_OMM_VERS = 2.0
CREATION_DATE  = 
ORIGINATOR     = 

OBJECT_NAME    = CYGNUS NG-23
OBJECT_ID      = 2025-208A
CENTER_NAME    = EARTH
REF_FRAME      = TEME
TIME_SYSTEM    = UTC
MEAN_ELEMENT_THEORY = SGP/SGP4

EPOCH          = 2025-12-20T05:10:04.568160
MEAN_MOTION    = 15.49679666
ECCENTRICITY   = .00031985
INCLINATION    = 51.6321
RA_OF_ASC_NODE = 105.4589
ARG_OF_PERICENTER = 275.1086
MEAN_ANOMALY   = 84.9538

EPHEMERIS_TYPE = 0
CLASSIFICATION_TYPE = U
NORAD_CAT_ID   = 65616
ELEMENT_SET_NO = 999
REV_AT_EPOCH   = 22
BSTAR          = .13176766E-3
MEAN_MOTION_DOT = .6989E-4
MEAN_MOTION_DDOT = 0

CCSDS_OMM_VERS = 2.0
CREATION_DATE  = 
ORIGINATOR     = 

OBJECT_NAME    = DRAGONFLY
OBJECT_ID      = 1998-067XH
CENTER_NAME    = EARTH
REF_FRAME      = TEME
TIME_SYSTEM    = UTC
MEAN_ELEMENT_THEORY = SGP/SGP4

EPOCH          = 2025-12-20T11:42:45.438624
MEAN_MOTION    = 15.74448787
ECCENTRICITY   = .0007438
INCLINATION    = 51.6254
RA_OF_ASC_NODE = 96.0114
ARG_OF_PERICENTER = 325.9909
MEAN_ANOMALY   = 34.0612

EPHEMERIS_TYPE = 0
CLASSIFICATION_TYPE = U
NORAD_CAT_ID   = 65729
ELEMENT_SET_NO = 999
REV_AT_EPOCH   = 1438
BSTAR          = .98006E-3
MEAN_MOTION_DOT = .147536E-2
MEAN_MOTION_DDOT = 0

CCSDS_OMM_VERS = 2.0
CREATION_DATE  = 
ORIGINATOR     = 

OBJECT_NAME    = 1998-067XK
OBJECT_ID      = 1998-067XK
CENTER_NAME    = EARTH
REF_FRAME      = TEME
TIME_SYSTEM    = UTC
MEAN_ELEMENT_THEORY = SGP/SGP4

EPOCH          = 2025-12-20T00:10:02.026560
MEAN_MOTION    = 15.67078773
ECCENTRICITY   = .00047639
INCLINATION    = 51.6294
RA_OF_ASC_NODE = 100.3244
ARG_OF_PERICENTER = 292.7833
MEAN_ANOMALY   = 67.2659

EPHEMERIS_TYPE = 0
CLASSIFICATION_TYPE = U
NORAD_CAT_ID   = 65731
ELEMENT_SET_NO = 999
REV_AT_EPOCH   = 1428
BSTAR          = .70175188E-3
MEAN_MOTION_DOT = .76617E-3
MEAN_MOTION_DDOT = 0

CCSDS_OMM_VERS = 2.0
CREATION_DATE  = 
ORIGINATOR     = 

OBJECT_NAME    = RSP-03
OBJECT_ID      = 1998-067XL
CENTER_NAME    = EARTH
REF_FRAME      = TEME
TIME_SYSTEM    = UTC
MEAN_ELEMENT_THEORY = SGP/SGP4

EPOCH          = 2025-12-19T10:11:34.022112
MEAN_MOTION    = 15.70283101
ECCENTRICITY   = .0005658
INCLINATION    = 51.6265
RA_OF_ASC_NODE = 102.4221
ARG_OF_PERICENTER = 294.5755
MEAN_ANOMALY   = 65.4652

EPHEMERIS_TYPE = 0
CLASSIFICATION_TYPE = U
NORAD_CAT_ID   = 65732
ELEMENT_SET_NO = 999
REV_AT_EPOCH   = 1421
BSTAR          = .84699E-3
MEAN_MOTION_DOT = .106087E-2
MEAN_MOTION_DDOT = 0

CCSDS_OMM_VERS = 2.0
CREATION_DATE  = 
ORIGINATOR     = 

OBJECT_NAME    = GHS-01
OBJECT_ID      = 1998-067XM
CENTER_NAME    = EARTH
REF_FRAME      = TEME
TIME_SYSTEM    = UTC
MEAN_ELEMENT_THEORY = SGP/SGP4

EPOCH          = 2025-12-20T11:41:11.075136
MEAN_MOTION    = 15.78117355
ECCENTRICITY   = .0008545
INCLINATION    = 51.6277
RA_OF_ASC_NODE = 95.2602
ARG_OF_PERICENTER = 329.3713
MEAN_ANOMALY   = 30.6788

EPHEMERIS_TYPE = 0
CLASSIFICATION_TYPE = U
NORAD_CAT_ID   = 65733
ELEMENT_SET_NO = 999
REV_AT_EPOCH   = 1440
BSTAR          = .11085E-2
MEAN_MOTION_DOT = .197582E-2
MEAN_MOTION_DDOT = 0

CCSDS_OMM_VERS = 2.0
CREATION_DATE  = 
ORIGINATOR     = 

OBJECT_NAME    = YOTSUBA-KULOVER
OBJECT_ID      = 1998-067XN
CENTER_NAME    = EARTH
REF_FRAME      = TEME
TIME_SYSTEM    = UTC
MEAN_ELEMENT_THEORY = SGP/SGP4

EPOCH          = 2025-12-19T10:32:35.848320
MEAN_MOTION    = 15.60329664
ECCENTRICITY   = .00017537
INCLINATION    = 51.6289
RA_OF_ASC_NODE = 106.2819
ARG_OF_PERICENTER = 320.2615
MEAN_ANOMALY   = 39.8249

EPHEMERIS_TYPE = 0
CLASSIFICATION_TYPE = U
NORAD_CAT_ID   = 65941
ELEMENT_SET_NO = 999
REV_AT_EPOCH   = 1090
BSTAR          = .6131661E-3
MEAN_MOTION_DOT = .50991E-3
MEAN_MOTION_DDOT = 0

CCSDS_OMM_VERS = 2.0
CREATION_DATE  = 
ORIGINATOR     = 

OBJECT_NAME    = BOTAN
OBJECT_ID      = 1998-067XP
CENTER_NAME    = EARTH
REF_FRAME      = TEME
TIME_SYSTEM    = UTC
MEAN_ELEMENT_THEORY = SGP/SGP4

EPOCH          = 2025-12-20T04:41:49.337088
MEAN_MOTION    = 15.64374422
ECCENTRICITY   = .00029517
INCLINATION    = 51.6284
RA_OF_ASC_NODE = 101.5830
ARG_OF_PERICENTER = 302.2200
MEAN_ANOMALY   = 57.8508

EPHEMERIS_TYPE = 0
CLASSIFICATION_TYPE = U
NORAD_CAT_ID   = 65942
ELEMENT_SET_NO = 999
REV_AT_EPOCH   = 1103
BSTAR          = .87028097E-3
MEAN_MOTION_DOT = .8541E-3
MEAN_MOTION_DDOT = 0

CCSDS_OMM_VERS = 2.0
CREATION_DATE  = 
ORIGINATOR     = 

OBJECT_NAME    = E-KAGAKU-1
OBJECT_ID      = 1998-067XQ
CENTER_NAME    = EARTH
REF_FRAME      = TEME
TIME_SYSTEM    = UTC
MEAN_ELEMENT_THEORY = SGP/SGP4

EPOCH          = 2025-12-18T08:24:49.666176
MEAN_MOTION    = 15.60193795
ECCENTRICITY   = .00013451
INCLINATION    = 51.6302
RA_OF_ASC_NODE = 111.7666
ARG_OF_PERICENTER = 249.8249
MEAN_ANOMALY   = 110.2600

EPHEMERIS_TYPE = 0
CLASSIFICATION_TYPE = U
NORAD_CAT_ID   = 65943
ELEMENT_SET_NO = 999
REV_AT_EPOCH   = 1073
BSTAR          = .84619625E-3
MEAN_MOTION_DOT = .70368E-3
MEAN_MOTION_DDOT = 0

CCSDS_OMM_VERS = 2.0
CREATION_DATE  = 
ORIGINATOR     = 

OBJECT_NAME    = HTV-X1
OBJECT_ID      = 2025-241A
CENTER_NAME    = EARTH
REF_FRAME      = TEME
TIME_SYSTEM    = UTC
MEAN_ELEMENT_THEORY = SGP/SGP4

EPOCH          = 2025-12-20T05:10:04.568160
MEAN_MOTION    = 15.49679666
ECCENTRICITY   = .00031985
INCLINATION    = 51.6321
RA_OF_ASC_NODE = 105.4589
ARG_OF_PERICENTER = 275.1086
MEAN_ANOMALY   = 84.9538

EPHEMERIS_TYPE = 0
CLASSIFICATION_TYPE = U
NORAD_CAT_ID   = 66174
ELEMENT_SET_NO = 999
REV_AT_EPOCH   = 51
BSTAR          = .13176766E-3
MEAN_MOTION_DOT = .6989E-4
MEAN_MOTION_DDOT = 0

CCSDS_OMM_VERS = 2.0
CREATION_DATE  = 
ORIGINATOR     = 

OBJECT_NAME    = SHENZHOU-22
OBJECT_ID      = 2025-272A
CENTER_NAME    = EARTH
REF_FRAME      = TEME
TIME_SYSTEM    = UTC
MEAN_ELEMENT_THEORY = SGP/SGP4

EPOCH          = 2025-12-20T04:59:38.766912
MEAN_MOTION    = 15.59496428
ECCENTRICITY   = .00077465
INCLINATION    = 41.4685
RA_OF_ASC_NODE = 331.3573
ARG_OF_PERICENTER = 96.7908
MEAN_ANOMALY   = 263.3812

EPHEMERIS_TYPE = 0
CLASSIFICATION_TYPE = U
NORAD_CAT_ID   = 66645
ELEMENT_SET_NO = 999
REV_AT_EPOCH   = 26519
BSTAR          = .22776024E-3
MEAN_MOTION_DOT = .18311E-3
MEAN_MOTION_DDOT = 0

